{
  "type": "FeatureCollection",
  "features": [
    {
      "type": "Feature",
      "id": "271",
      "properties": {
        "code": "271",
        "name": "271 Huntington (LP)",
        "roomCount": 1,
        "lon": -71.08639767999999,
        "lat": 42.34210628
      },
      "geometry": {
        "type": "Polygon",
        "coordinates": [
          [
            [
              -71.0862446,
              42.3424138
            ],
            [
              -71.0859438,
              42.3422106
            ],
            [
              -71.0866262,
              42.3416447
            ],
            [
              -71.0869292,
              42.3418485
            ],
            [
              -71.0862446,
              42.3424138
            ]
          ]
        ]
      }
    },
    {
      "type": "Feature",
      "id": "BK",
      "properties": {
        "code": "BK",
        "name": "Behrakis Health Sciences Cntr",
        "roomCount": 32,
        "lon": -71.09131654468085,
        "lat": 42.336915301063804
      },
      "geometry": {
        "type": "Polygon",
        "coordinates": [
          [
            [
              -71.0918976,
              42.336977
            ],
            [
              -71.0918646,
              42.3370222
            ],
            [
              -71.091814,
              42.3370914
            ],
            [
              -71.0914665,
              42.3370575
            ],
            [
              -71.0914605,
              42.337056
            ],
            [
              -71.0914545,
              42.3370543
            ],
            [
              -71.0914487,
              42.3370526
            ],
            [
              -71.0914428,
              42.3370508
            ],
            [
              -71.091437,
              42.337049
            ],
            [
              -71.0914312,
              42.337047
            ],
            [
              -71.0914255,
              42.337045
            ],
            [
              -71.0914198,
              42.3370429
            ],
            [
              -71.0914141,
              42.3370407
            ],
            [
              -71.0914085,
              42.3370384
            ],
            [
              -71.091403,
              42.3370361
            ],
            [
              -71.0913975,
              42.3370338
            ],
            [
              -71.0913921,
              42.3370313
            ],
            [
              -71.0913868,
              42.3370288
            ],
            [
              -71.0913814,
              42.3370262
            ],
            [
              -71.0913762,
              42.3370235
            ],
            [
              -71.091371,
              42.3370207
            ],
            [
              -71.0913659,
              42.337018
            ],
            [
              -71.0913609,
              42.3370151
            ],
            [
              -71.0913559,
              42.3370122
            ],
            [
              -71.0913511,
              42.3370092
            ],
            [
              -71.0913462,
              42.3370061
            ],
            [
              -71.0913414,
              42.337003
            ],
            [
              -71.0913367,
              42.3369998
            ],
            [
              -71.0913321,
              42.3369966
            ],
            [
              -71.0913276,
              42.3369933
            ],
            [
              -71.0913232,
              42.3369899
            ],
            [
              -71.0913187,
              42.3369865
            ],
            [
              -71.0913145,
              42.3369831
            ],
            [
              -71.0913103,
              42.3369796
            ],
            [
              -71.0913062,
              42.3369759
            ],
            [
              -71.0913021,
              42.3369723
            ],
            [
              -71.0912981,
              42.3369686
            ],
            [
              -71.0912942,
              42.3369649
            ],
            [
              -71.0912905,
              42.3369611
            ],
            [
              -71.0912867,
              42.3369572
            ],
            [
              -71.0912831,
              42.3369533
            ],
            [
              -71.0912796,
              42.3369495
            ],
            [
              -71.0912763,
              42.3369455
            ],
            [
              -71.0912729,
              42.3369415
            ],
            [
              -71.0912698,
              42.3369375
            ],
            [
              -71.0912665,
              42.3369333
            ],
            [
              -71.0912635,
              42.3369291
            ],
            [
              -71.0912606,
              42.336925
            ],
            [
              -71.0912577,
              42.3369208
            ],
            [
              -71.091255,
              42.3369165
            ],
            [
              -71.0912523,
              42.3369123
            ],
            [
              -71.0912498,
              42.3369079
            ],
            [
              -71.0912474,
              42.3369036
            ],
            [
              -71.091245,
              42.3368992
            ],
            [
              -71.0912429,
              42.3368948
            ],
            [
              -71.0912407,
              42.3368904
            ],
            [
              -71.0912387,
              42.3368858
            ],
            [
              -71.0912367,
              42.3368814
            ],
            [
              -71.091235,
              42.3368768
            ],
            [
              -71.0912333,
              42.3368723
            ],
            [
              -71.0912316,
              42.3368677
            ],
            [
              -71.0912302,
              42.3368632
            ],
            [
              -71.0912288,
              42.3368586
            ],
            [
              -71.0912276,
              42.3368539
            ],
            [
              -71.0912264,
              42.3368493
            ],
            [
              -71.0912253,
              42.3368447
            ],
            [
              -71.0912244,
              42.3368401
            ],
            [
              -71.0912236,
              42.3368354
            ],
            [
              -71.0912228,
              42.3368307
            ],
            [
              -71.0912222,
              42.336826
            ],
            [
              -71.0912217,
              42.3368213
            ],
            [
              -71.0912213,
              42.3368166
            ],
            [
              -71.0912211,
              42.3368119
            ],
            [
              -71.0912208,
              42.3368072
            ],
            [
              -71.0912208,
              42.3368025
            ],
            [
              -71.0912208,
              42.3367977
            ],
            [
              -71.0912209,
              42.3367931
            ],
            [
              -71.0912212,
              42.3367884
            ],
            [
              -71.0912216,
              42.3367836
            ],
            [
              -71.0912221,
              42.3367789
            ],
            [
              -71.0912228,
              42.3367742
            ],
            [
              -71.0912234,
              42.3367696
            ],
            [
              -71.0912243,
              42.3367649
            ],
            [
              -71.0912252,
              42.3367602
            ],
            [
              -71.0912263,
              42.3367556
            ],
            [
              -71.0912274,
              42.3367509
            ],
            [
              -71.0912286,
              42.3367464
            ],
            [
              -71.09123,
              42.3367418
            ],
            [
              -71.0912315,
              42.3367372
            ],
            [
              -71.0912331,
              42.3367326
            ],
            [
              -71.0912361,
              42.3367249
            ],
            [
              -71.0912438,
              42.3367143
            ],
            [
              -71.0912675,
              42.3367238
            ],
            [
              -71.0918976,
              42.336977
            ]
          ]
        ]
      }
    },
    {
      "type": "Feature",
      "id": "CA",
      "properties": {
        "code": "CA",
        "name": "Cahners Hall",
        "roomCount": 8,
        "lon": -71.09158764444443,
        "lat": 42.34148135555556
      },
      "geometry": {
        "type": "Polygon",
        "coordinates": [
          [
            [
              -71.0913977,
              42.3413254
            ],
            [
              -71.0917312,
              42.3414435
            ],
            [
              -71.0917027,
              42.3414873
            ],
            [
              -71.0917599,
              42.3415076
            ],
            [
              -71.091711,
              42.3415829
            ],
            [
              -71.0916615,
              42.3415654
            ],
            [
              -71.0916341,
              42.3416077
            ],
            [
              -71.091293,
              42.341487
            ],
            [
              -71.0913977,
              42.3413254
            ]
          ]
        ]
      }
    },
    {
      "type": "Feature",
      "id": "CG",
      "properties": {
        "code": "CG",
        "name": "Cargill Hall",
        "roomCount": 2,
        "lon": -71.09161904375,
        "lat": 42.338957025
      },
      "geometry": {
        "type": "Polygon",
        "coordinates": [
          [
            [
              -71.0915636,
              42.3390656
            ],
            [
              -71.0915985,
              42.3390735
            ],
            [
              -71.0916199,
              42.3390626
            ],
            [
              -71.0916199,
              42.3390547
            ],
            [
              -71.0916803,
              42.3390279
            ],
            [
              -71.0917701,
              42.3389953
            ],
            [
              -71.0917902,
              42.3389407
            ],
            [
              -71.0917487,
              42.3388852
            ],
            [
              -71.091673,
              42.3388677
            ],
            [
              -71.091667,
              42.3388552
            ],
            [
              -71.0916069,
              42.3388381
            ],
            [
              -71.0915482,
              42.3388594
            ],
            [
              -71.0915153,
              42.3388128
            ],
            [
              -71.0914027,
              42.3388574
            ],
            [
              -71.0915368,
              42.3390507
            ],
            [
              -71.0915636,
              42.3390656
            ]
          ]
        ]
      }
    },
    {
      "type": "Feature",
      "id": "CH",
      "properties": {
        "code": "CH",
        "name": "Churchill Hall",
        "roomCount": 6,
        "lon": -71.08894206,
        "lat": 42.33873334
      },
      "geometry": {
        "type": "Polygon",
        "coordinates": [
          [
            [
              -71.0890983,
              42.338587
            ],
            [
              -71.0892148,
              42.3387389
            ],
            [
              -71.0887077,
              42.3389529
            ],
            [
              -71.0885912,
              42.3388009
            ],
            [
              -71.0890983,
              42.338587
            ]
          ]
        ]
      }
    },
    {
      "type": "Feature",
      "id": "CN",
      "properties": {
        "code": "CN",
        "name": "Cullinane Building",
        "roomCount": 1,
        "lon": -71.08659077142858,
        "lat": 42.34003995714285
      },
      "geometry": {
        "type": "Polygon",
        "coordinates": [
          [
            [
              -71.0866286,
              42.3398685
            ],
            [
              -71.0866695,
              42.3399474
            ],
            [
              -71.0865623,
              42.3399944
            ],
            [
              -71.08675,
              42.3402635
            ],
            [
              -71.0865722,
              42.3403349
            ],
            [
              -71.0863242,
              42.3400025
            ],
            [
              -71.0866286,
              42.3398685
            ]
          ]
        ]
      }
    },
    {
      "type": "Feature",
      "id": "DA",
      "properties": {
        "code": "DA",
        "name": "Dana Research Center",
        "roomCount": 2,
        "lon": -71.08932493333333,
        "lat": 42.33809908333333
      },
      "geometry": {
        "type": "Polygon",
        "coordinates": [
          [
            [
              -71.0891709,
              42.3382874
            ],
            [
              -71.0889847,
              42.3380578
            ],
            [
              -71.0894466,
              42.3378595
            ],
            [
              -71.0895544,
              42.3380054
            ],
            [
              -71.0896221,
              42.338097
            ],
            [
              -71.0891709,
              42.3382874
            ]
          ]
        ]
      }
    },
    {
      "type": "Feature",
      "id": "DK",
      "properties": {
        "code": "DK",
        "name": "Dockser Hall",
        "roomCount": 12,
        "lon": -71.09044,
        "lat": 42.33869
      },
      "geometry": {
        "type": "Point",
        "coordinates": [
          -71.09044,
          42.33869
        ]
      }
    },
    {
      "type": "Feature",
      "id": "DG",
      "properties": {
        "code": "DG",
        "name": "Dodge Hall",
        "roomCount": 15,
        "lon": -71.0877806,
        "lat": 42.3402653
      },
      "geometry": {
        "type": "Polygon",
        "coordinates": [
          [
            [
              -71.0877685,
              42.3399867
            ],
            [
              -71.0879603,
              42.3402332
            ],
            [
              -71.0881453,
              42.3404709
            ],
            [
              -71.0878382,
              42.3406024
            ],
            [
              -71.0877204,
              42.340451
            ],
            [
              -71.0875822,
              42.3402734
            ],
            [
              -71.0874614,
              42.3401181
            ],
            [
              -71.0877685,
              42.3399867
            ]
          ]
        ]
      }
    },
    {
      "type": "Feature",
      "id": "EV",
      "properties": {
        "code": "EV",
        "name": "East Village",
        "roomCount": 5,
        "lon": -71.08689,
        "lat": 42.34047
      },
      "geometry": {
        "type": "Polygon",
        "coordinates": [
          [
            [
              -71.0869822,
              42.3405137
            ],
            [
              -71.0869901,
              42.3405261
            ],
            [
              -71.0869852,
              42.340528
            ],
            [
              -71.0869896,
              42.3405347
            ],
            [
              -71.0869949,
              42.3405331
            ],
            [
              -71.0872868,
              42.3404222
            ],
            [
              -71.0873209,
              42.3404098
            ],
            [
              -71.0872632,
              42.3403358
            ],
            [
              -71.0872601,
              42.3403318
            ],
            [
              -71.0872497,
              42.3403358
            ],
            [
              -71.0872523,
              42.3403394
            ],
            [
              -71.0872331,
              42.340347
            ],
            [
              -71.0871794,
              42.340275
            ],
            [
              -71.086981,
              42.3403541
            ],
            [
              -71.0869649,
              42.3403328
            ],
            [
              -71.0869705,
              42.34033
            ],
            [
              -71.0869638,
              42.340322
            ],
            [
              -71.0869581,
              42.3403246
            ],
            [
              -71.0864525,
              42.340534
            ],
            [
              -71.086502,
              42.3405959
            ],
            [
              -71.086505,
              42.3405999
            ],
            [
              -71.0865138,
              42.3405954
            ],
            [
              -71.0865116,
              42.340592
            ],
            [
              -71.0865371,
              42.3405823
            ],
            [
              -71.0865898,
              42.3406578
            ],
            [
              -71.0869822,
              42.3405137
            ]
          ]
        ]
      }
    },
    {
      "type": "Feature",
      "id": "EL",
      "properties": {
        "code": "EL",
        "name": "Ell Hall",
        "roomCount": 5,
        "lon": -71.088088675,
        "lat": 42.33976235
      },
      "geometry": {
        "type": "Polygon",
        "coordinates": [
          [
            [
              -71.0882355,
              42.339624
            ],
            [
              -71.0878024,
              42.3397954
            ],
            [
              -71.087768,
              42.3398105
            ],
            [
              -71.0878839,
              42.3399772
            ],
            [
              -71.0881337,
              42.3398778
            ],
            [
              -71.0883812,
              42.3397792
            ],
            [
              -71.0882692,
              42.3396107
            ],
            [
              -71.0882355,
              42.339624
            ]
          ]
        ]
      }
    },
    {
      "type": "Feature",
      "id": "EXP",
      "properties": {
        "code": "EXP",
        "name": "EXP",
        "roomCount": 17,
        "lon": -71.08761,
        "lat": 42.33706
      },
      "geometry": {
        "type": "Polygon",
        "coordinates": [
          [
            [
              -71.087648,
              42.337472
            ],
            [
              -71.0876675,
              42.3374701
            ],
            [
              -71.0876819,
              42.3374663
            ],
            [
              -71.0877007,
              42.3374528
            ],
            [
              -71.0878388,
              42.337329
            ],
            [
              -71.0878947,
              42.3372737
            ],
            [
              -71.0880702,
              42.3370297
            ],
            [
              -71.0880741,
              42.3370197
            ],
            [
              -71.0880745,
              42.337006
            ],
            [
              -71.0880732,
              42.3369955
            ],
            [
              -71.0880711,
              42.3369893
            ],
            [
              -71.0880695,
              42.3369842
            ],
            [
              -71.088063,
              42.3369741
            ],
            [
              -71.0880512,
              42.3369614
            ],
            [
              -71.0879504,
              42.3368566
            ],
            [
              -71.0879154,
              42.3368193
            ],
            [
              -71.0879314,
              42.3368105
            ],
            [
              -71.0877835,
              42.3366613
            ],
            [
              -71.0877548,
              42.3366528
            ],
            [
              -71.0877247,
              42.3366576
            ],
            [
              -71.0875729,
              42.3367376
            ],
            [
              -71.0875639,
              42.3367436
            ],
            [
              -71.0875607,
              42.33675
            ],
            [
              -71.0875593,
              42.3367565
            ],
            [
              -71.087559,
              42.3367687
            ],
            [
              -71.0875896,
              42.3368025
            ],
            [
              -71.0875619,
              42.3368191
            ],
            [
              -71.0875374,
              42.3368347
            ],
            [
              -71.0875262,
              42.3368233
            ],
            [
              -71.0872643,
              42.3369755
            ],
            [
              -71.0871651,
              42.337033
            ],
            [
              -71.0871451,
              42.3370554
            ],
            [
              -71.0871477,
              42.3370815
            ],
            [
              -71.0871611,
              42.3371092
            ],
            [
              -71.0871893,
              42.3371477
            ],
            [
              -71.087256,
              42.3372389
            ],
            [
              -71.0872794,
              42.3372238
            ],
            [
              -71.0873617,
              42.3372795
            ],
            [
              -71.087514,
              42.3373855
            ],
            [
              -71.0876296,
              42.3374652
            ],
            [
              -71.087648,
              42.337472
            ]
          ]
        ]
      }
    },
    {
      "type": "Feature",
      "id": "FC",
      "properties": {
        "code": "FC",
        "name": "Fenway Center",
        "roomCount": 1,
        "lon": -71.08787713999999,
        "lat": 42.342038650000006
      },
      "geometry": {
        "type": "Polygon",
        "coordinates": [
          [
            [
              -71.08757,
              42.3419472
            ],
            [
              -71.0876521,
              42.3418804
            ],
            [
              -71.0876703,
              42.3418926
            ],
            [
              -71.0877057,
              42.3418638
            ],
            [
              -71.0878857,
              42.3419856
            ],
            [
              -71.0879049,
              42.3419699
            ],
            [
              -71.088015,
              42.3420443
            ],
            [
              -71.0880253,
              42.3420359
            ],
            [
              -71.0880393,
              42.3420454
            ],
            [
              -71.0880679,
              42.3420221
            ],
            [
              -71.0880994,
              42.3420434
            ],
            [
              -71.0880908,
              42.3420895
            ],
            [
              -71.088046,
              42.3421259
            ],
            [
              -71.0880572,
              42.3421335
            ],
            [
              -71.087963,
              42.3422102
            ],
            [
              -71.087871,
              42.342148
            ],
            [
              -71.0878217,
              42.3421881
            ],
            [
              -71.08772,
              42.3421193
            ],
            [
              -71.0877675,
              42.3420807
            ],
            [
              -71.08757,
              42.3419472
            ]
          ]
        ]
      }
    },
    {
      "type": "Feature",
      "id": "FR",
      "properties": {
        "code": "FR",
        "name": "Forsyth Building",
        "roomCount": 19,
        "lon": -71.08964714000001,
        "lat": 42.33852372
      },
      "geometry": {
        "type": "Polygon",
        "coordinates": [
          [
            [
              -71.0898392,
              42.338337
            ],
            [
              -71.0899916,
              42.3386429
            ],
            [
              -71.0894018,
              42.3388917
            ],
            [
              -71.0891639,
              42.33841
            ],
            [
              -71.0898392,
              42.338337
            ]
          ]
        ]
      }
    },
    {
      "type": "Feature",
      "id": "HS",
      "properties": {
        "code": "HS",
        "name": "Hastings Suite",
        "roomCount": 20,
        "lon": -71.09019,
        "lat": 42.34271
      },
      "geometry": {
        "type": "Point",
        "coordinates": [
          -71.09019,
          42.34271
        ]
      }
    },
    {
      "type": "Feature",
      "id": "HA",
      "properties": {
        "code": "HA",
        "name": "Hayden Hall",
        "roomCount": 13,
        "lon": -71.08846253333333,
        "lat": 42.339259925
      },
      "geometry": {
        "type": "Polygon",
        "coordinates": [
          [
            [
              -71.0884555,
              42.3389723
            ],
            [
              -71.0884895,
              42.3390167
            ],
            [
              -71.0886473,
              42.3392227
            ],
            [
              -71.0888084,
              42.33945
            ],
            [
              -71.0887937,
              42.3394559
            ],
            [
              -71.0884431,
              42.3395959
            ],
            [
              -71.0883215,
              42.3394375
            ],
            [
              -71.0884831,
              42.3393693
            ],
            [
              -71.0883647,
              42.3392148
            ],
            [
              -71.0882031,
              42.339283
            ],
            [
              -71.088085,
              42.3391287
            ],
            [
              -71.0884555,
              42.3389723
            ]
          ]
        ]
      }
    },
    {
      "type": "Feature",
      "id": "HO",
      "properties": {
        "code": "HO",
        "name": "Holmes Hall",
        "roomCount": 7,
        "lon": -71.09079756666667,
        "lat": 42.33788933333333
      },
      "geometry": {
        "type": "Polygon",
        "coordinates": [
          [
            [
              -71.0907133,
              42.33797
            ],
            [
              -71.0909309,
              42.3379858
            ],
            [
              -71.0909446,
              42.3378107
            ],
            [
              -71.0907566,
              42.3378004
            ],
            [
              -71.0907267,
              42.3377991
            ],
            [
              -71.0907133,
              42.33797
            ]
          ]
        ]
      }
    },
    {
      "type": "Feature",
      "id": "HT",
      "properties": {
        "code": "HT",
        "name": "Hurtig Hall",
        "roomCount": 6,
        "lon": -71.08619944,
        "lat": 42.3397334
      },
      "geometry": {
        "type": "Polygon",
        "coordinates": [
          [
            [
              -71.0863364,
              42.3395576
            ],
            [
              -71.0865066,
              42.3397941
            ],
            [
              -71.085994,
              42.3399971
            ],
            [
              -71.0858238,
              42.3397606
            ],
            [
              -71.0863364,
              42.3395576
            ]
          ]
        ]
      }
    },
    {
      "type": "Feature",
      "id": "INV",
      "properties": {
        "code": "INV",
        "name": "International Village",
        "roomCount": 8,
        "lon": -71.0891809652174,
        "lat": 42.335159391304344
      },
      "geometry": {
        "type": "Polygon",
        "coordinates": [
          [
            [
              -71.0897828,
              42.3350966
            ],
            [
              -71.0897555,
              42.3351139
            ],
            [
              -71.0892624,
              42.3354258
            ],
            [
              -71.0892142,
              42.3353782
            ],
            [
              -71.0891176,
              42.335402
            ],
            [
              -71.0891265,
              42.3354247
            ],
            [
              -71.0891078,
              42.3354292
            ],
            [
              -71.0891246,
              42.3354634
            ],
            [
              -71.088966,
              42.3355333
            ],
            [
              -71.0889531,
              42.3355408
            ],
            [
              -71.0889366,
              42.3355091
            ],
            [
              -71.0888014,
              42.3351699
            ],
            [
              -71.0887785,
              42.3351392
            ],
            [
              -71.0887594,
              42.3351179
            ],
            [
              -71.0887404,
              42.3350991
            ],
            [
              -71.0887084,
              42.3350675
            ],
            [
              -71.0892143,
              42.3348177
            ],
            [
              -71.0892678,
              42.3347913
            ],
            [
              -71.089241,
              42.3347556
            ],
            [
              -71.0894258,
              42.334667
            ],
            [
              -71.0894583,
              42.3347061
            ],
            [
              -71.089637,
              42.3349211
            ],
            [
              -71.0897828,
              42.3350966
            ]
          ]
        ]
      }
    },
    {
      "type": "Feature",
      "id": "KA",
      "properties": {
        "code": "KA",
        "name": "Kariotis Hall",
        "roomCount": 13,
        "lon": -71.09087993846154,
        "lat": 42.33865496923076
      },
      "geometry": {
        "type": "Polygon",
        "coordinates": [
          [
            [
              -71.0910683,
              42.3386497
            ],
            [
              -71.0909305,
              42.3386047
            ],
            [
              -71.0907448,
              42.3385351
            ],
            [
              -71.0907287,
              42.3385608
            ],
            [
              -71.0907251,
              42.3385974
            ],
            [
              -71.0907439,
              42.3386485
            ],
            [
              -71.0907762,
              42.3386931
            ],
            [
              -71.0908178,
              42.3387154
            ],
            [
              -71.0908742,
              42.3387284
            ],
            [
              -71.0909386,
              42.3387257
            ],
            [
              -71.0909894,
              42.3387135
            ],
            [
              -71.0910334,
              42.3386926
            ],
            [
              -71.0910683,
              42.3386497
            ]
          ]
        ]
      }
    },
    {
      "type": "Feature",
      "id": "KN",
      "properties": {
        "code": "KN",
        "name": "Knowles Center",
        "roomCount": 4,
        "lon": -71.0908849,
        "lat": 42.339155616666666
      },
      "geometry": {
        "type": "Polygon",
        "coordinates": [
          [
            [
              -71.0910041,
              42.3390135
            ],
            [
              -71.0911567,
              42.3392403
            ],
            [
              -71.0907408,
              42.3394062
            ],
            [
              -71.0905841,
              42.3391784
            ],
            [
              -71.0908196,
              42.3390818
            ],
            [
              -71.0910041,
              42.3390135
            ]
          ]
        ]
      }
    },
    {
      "type": "Feature",
      "id": "LA",
      "properties": {
        "code": "LA",
        "name": "Lake Hall",
        "roomCount": 3,
        "lon": -71.0908111478261,
        "lat": 42.33831905652173
      },
      "geometry": {
        "type": "Polygon",
        "coordinates": [
          [
            [
              -71.0909309,
              42.3379858
            ],
            [
              -71.0908983,
              42.3384002
            ],
            [
              -71.0908977,
              42.3384046
            ],
            [
              -71.0908962,
              42.3384088
            ],
            [
              -71.0908941,
              42.338413
            ],
            [
              -71.0908914,
              42.3384168
            ],
            [
              -71.090888,
              42.3384204
            ],
            [
              -71.0908841,
              42.3384237
            ],
            [
              -71.0908796,
              42.3384266
            ],
            [
              -71.0908747,
              42.3384291
            ],
            [
              -71.0908694,
              42.3384311
            ],
            [
              -71.0908639,
              42.3384326
            ],
            [
              -71.0908581,
              42.3384336
            ],
            [
              -71.0908522,
              42.3384341
            ],
            [
              -71.0908463,
              42.338434
            ],
            [
              -71.0908403,
              42.3384334
            ],
            [
              -71.0908304,
              42.3384311
            ],
            [
              -71.0903991,
              42.3382902
            ],
            [
              -71.09041,
              42.3381777
            ],
            [
              -71.0906451,
              42.3381879
            ],
            [
              -71.0906624,
              42.3379678
            ],
            [
              -71.0907133,
              42.33797
            ],
            [
              -71.0909309,
              42.3379858
            ]
          ]
        ]
      }
    },
    {
      "type": "Feature",
      "id": "ME",
      "properties": {
        "code": "ME",
        "name": "Meserve Hall",
        "roomCount": 1,
        "lon": -71.09084232000001,
        "lat": 42.33767084
      },
      "geometry": {
        "type": "Polygon",
        "coordinates": [
          [
            [
              -71.0907566,
              42.3378004
            ],
            [
              -71.0907828,
              42.3374673
            ],
            [
              -71.090971,
              42.3374754
            ],
            [
              -71.0909446,
              42.3378107
            ],
            [
              -71.0907566,
              42.3378004
            ]
          ]
        ]
      }
    },
    {
      "type": "Feature",
      "id": "MU",
      "properties": {
        "code": "MU",
        "name": "Mugar Life Science Building",
        "roomCount": 2,
        "lon": -71.08724014705884,
        "lat": 42.33986841764706
      },
      "geometry": {
        "type": "Polygon",
        "coordinates": [
          [
            [
              -71.0872197,
              42.3395472
            ],
            [
              -71.0872863,
              42.3396399
            ],
            [
              -71.0873924,
              42.3395978
            ],
            [
              -71.0876318,
              42.3399305
            ],
            [
              -71.0875477,
              42.3399637
            ],
            [
              -71.0875775,
              42.3400051
            ],
            [
              -71.0874787,
              42.3400442
            ],
            [
              -71.0874497,
              42.340004
            ],
            [
              -71.0873997,
              42.3400238
            ],
            [
              -71.087276,
              42.339852
            ],
            [
              -71.0870718,
              42.3399329
            ],
            [
              -71.0872016,
              42.3401135
            ],
            [
              -71.0869719,
              42.3402045
            ],
            [
              -71.0867147,
              42.3398471
            ],
            [
              -71.0868496,
              42.3397937
            ],
            [
              -71.0867937,
              42.339716
            ],
            [
              -71.0872197,
              42.3395472
            ]
          ]
        ]
      }
    },
    {
      "type": "Feature",
      "id": "NI",
      "properties": {
        "code": "NI",
        "name": "Nightingale Hall",
        "roomCount": 5,
        "lon": -71.09003389411765,
        "lat": 42.338140761764706
      },
      "geometry": {
        "type": "Polygon",
        "coordinates": [
          [
            [
              -71.0903991,
              42.3382902
            ],
            [
              -71.0900751,
              42.3383725
            ],
            [
              -71.0900651,
              42.3383565
            ],
            [
              -71.0900553,
              42.3383404
            ],
            [
              -71.090046,
              42.3383241
            ],
            [
              -71.0900371,
              42.3383078
            ],
            [
              -71.0900286,
              42.3382914
            ],
            [
              -71.0900203,
              42.3382748
            ],
            [
              -71.0900125,
              42.3382581
            ],
            [
              -71.0900053,
              42.3382413
            ],
            [
              -71.0899982,
              42.3382245
            ],
            [
              -71.0899916,
              42.3382075
            ],
            [
              -71.0899854,
              42.3381905
            ],
            [
              -71.0899797,
              42.3381734
            ],
            [
              -71.0899743,
              42.3381562
            ],
            [
              -71.0899693,
              42.3381389
            ],
            [
              -71.0899648,
              42.3381216
            ],
            [
              -71.0899606,
              42.3381042
            ],
            [
              -71.0899569,
              42.3380868
            ],
            [
              -71.0899535,
              42.3380693
            ],
            [
              -71.0899505,
              42.3380518
            ],
            [
              -71.0899481,
              42.3380343
            ],
            [
              -71.0899459,
              42.3380167
            ],
            [
              -71.0899442,
              42.337999
            ],
            [
              -71.089943,
              42.3379815
            ],
            [
              -71.0899421,
              42.3379638
            ],
            [
              -71.0899416,
              42.3379462
            ],
            [
              -71.0899416,
              42.3379285
            ],
            [
              -71.089942,
              42.3379109
            ],
            [
              -71.0899432,
              42.3378873
            ],
            [
              -71.0902218,
              42.3378993
            ],
            [
              -71.0902006,
              42.3381687
            ],
            [
              -71.09041,
              42.3381777
            ],
            [
              -71.0903991,
              42.3382902
            ]
          ]
        ]
      }
    },
    {
      "type": "Feature",
      "id": "RI",
      "properties": {
        "code": "RI",
        "name": "Richards Hall",
        "roomCount": 26,
        "lon": -71.0888356857143,
        "lat": 42.33982809999999
      },
      "geometry": {
        "type": "Polygon",
        "coordinates": [
          [
            [
              -71.0888517,
              42.3395469
            ],
            [
              -71.0889654,
              42.3396952
            ],
            [
              -71.0887789,
              42.3397739
            ],
            [
              -71.0888249,
              42.339834
            ],
            [
              -71.0888568,
              42.3398756
            ],
            [
              -71.0888782,
              42.3399035
            ],
            [
              -71.0889227,
              42.3399616
            ],
            [
              -71.0891094,
              42.3398829
            ],
            [
              -71.0892166,
              42.3400229
            ],
            [
              -71.0888268,
              42.3401874
            ],
            [
              -71.0886507,
              42.3399576
            ],
            [
              -71.088462,
              42.3397113
            ],
            [
              -71.0885038,
              42.3396937
            ],
            [
              -71.0888517,
              42.3395469
            ]
          ]
        ]
      }
    },
    {
      "type": "Feature",
      "id": "RB",
      "properties": {
        "code": "RB",
        "name": "Robinson Hall",
        "roomCount": 5,
        "lon": -71.08676177999999,
        "lat": 42.33923014
      },
      "geometry": {
        "type": "Polygon",
        "coordinates": [
          [
            [
              -71.086925,
              42.3390819
            ],
            [
              -71.0870422,
              42.3392445
            ],
            [
              -71.0865169,
              42.3394525
            ],
            [
              -71.0863998,
              42.3392899
            ],
            [
              -71.086925,
              42.3390819
            ]
          ]
        ]
      }
    },
    {
      "type": "Feature",
      "id": "RY",
      "properties": {
        "code": "RY",
        "name": "Ryder Hall",
        "roomCount": 71,
        "lon": -71.09046576363636,
        "lat": 42.336660054545455
      },
      "geometry": {
        "type": "Polygon",
        "coordinates": [
          [
            [
              -71.090206,
              42.3363764
            ],
            [
              -71.0911053,
              42.3364504
            ],
            [
              -71.0910514,
              42.3368105
            ],
            [
              -71.0906664,
              42.3367787
            ],
            [
              -71.090587,
              42.3367722
            ],
            [
              -71.0905404,
              42.3367684
            ],
            [
              -71.0902399,
              42.3367437
            ],
            [
              -71.090212,
              42.3367414
            ],
            [
              -71.0901522,
              42.3367365
            ],
            [
              -71.0901568,
              42.336706
            ],
            [
              -71.090206,
              42.3363764
            ]
          ]
        ]
      }
    },
    {
      "type": "Feature",
      "id": "ISEC",
      "properties": {
        "code": "ISEC",
        "name": "Science Engineering Complex",
        "roomCount": 7,
        "lon": -71.08707944042554,
        "lat": 42.3376753212766
      },
      "geometry": {
        "type": "Polygon",
        "coordinates": [
          [
            [
              -71.0871137,
              42.3380094
            ],
            [
              -71.0870744,
              42.338053
            ],
            [
              -71.0868687,
              42.3379554
            ],
            [
              -71.086904,
              42.3379193
            ],
            [
              -71.0867571,
              42.3378374
            ],
            [
              -71.0865872,
              42.3377238
            ],
            [
              -71.0863597,
              42.3375287
            ],
            [
              -71.0865662,
              42.3373987
            ],
            [
              -71.0867236,
              42.3375295
            ],
            [
              -71.0867437,
              42.3375208
            ],
            [
              -71.0867667,
              42.3375099
            ],
            [
              -71.086743,
              42.3374865
            ],
            [
              -71.0867434,
              42.3374733
            ],
            [
              -71.0867462,
              42.3374628
            ],
            [
              -71.08676,
              42.337451
            ],
            [
              -71.0867806,
              42.3374406
            ],
            [
              -71.0868525,
              42.3374185
            ],
            [
              -71.0869117,
              42.3374176
            ],
            [
              -71.0869736,
              42.3374217
            ],
            [
              -71.0870329,
              42.3374363
            ],
            [
              -71.0870854,
              42.3374549
            ],
            [
              -71.0871336,
              42.3374777
            ],
            [
              -71.0871868,
              42.3375107
            ],
            [
              -71.087228,
              42.3375466
            ],
            [
              -71.0872191,
              42.3375571
            ],
            [
              -71.0872402,
              42.3375747
            ],
            [
              -71.0872593,
              42.3375895
            ],
            [
              -71.0873139,
              42.3376413
            ],
            [
              -71.0873478,
              42.3376777
            ],
            [
              -71.0873819,
              42.3377143
            ],
            [
              -71.0874058,
              42.3377409
            ],
            [
              -71.087419,
              42.3377605
            ],
            [
              -71.0874211,
              42.3377771
            ],
            [
              -71.0874172,
              42.3377919
            ],
            [
              -71.0874085,
              42.3378052
            ],
            [
              -71.0873912,
              42.337816
            ],
            [
              -71.0873685,
              42.3378238
            ],
            [
              -71.0873434,
              42.3378284
            ],
            [
              -71.0873185,
              42.3378287
            ],
            [
              -71.0872929,
              42.3378254
            ],
            [
              -71.0872686,
              42.3378187
            ],
            [
              -71.0872394,
              42.3378078
            ],
            [
              -71.0872291,
              42.3378191
            ],
            [
              -71.0872115,
              42.3378394
            ],
            [
              -71.0872302,
              42.3378478
            ],
            [
              -71.0872502,
              42.3378613
            ],
            [
              -71.0871137,
              42.3380094
            ]
          ]
        ]
      }
    },
    {
      "type": "Feature",
      "id": "SH",
      "properties": {
        "code": "SH",
        "name": "Shillman Hall",
        "roomCount": 16,
        "lon": -71.09013559466666,
        "lat": 42.337497936000005
      },
      "geometry": {
        "type": "Polygon",
        "coordinates": [
          [
            [
              -71.0902951,
              42.3374114
            ],
            [
              -71.0905531,
              42.3374226
            ],
            [
              -71.0905392,
              42.3376006
            ],
            [
              -71.0902916,
              42.3375899
            ],
            [
              -71.0902878,
              42.3376388
            ],
            [
              -71.0902223,
              42.337636
            ],
            [
              -71.0902081,
              42.3378147
            ],
            [
              -71.0899711,
              42.3378045
            ],
            [
              -71.0899871,
              42.337601
            ],
            [
              -71.0899892,
              42.3375962
            ],
            [
              -71.0899911,
              42.3375917
            ],
            [
              -71.0899933,
              42.3375872
            ],
            [
              -71.0899957,
              42.3375827
            ],
            [
              -71.089998,
              42.3375783
            ],
            [
              -71.0900005,
              42.337574
            ],
            [
              -71.0900031,
              42.3375696
            ],
            [
              -71.0900057,
              42.3375653
            ],
            [
              -71.0900086,
              42.3375611
            ],
            [
              -71.0900115,
              42.3375568
            ],
            [
              -71.0900144,
              42.3375527
            ],
            [
              -71.0900176,
              42.3375484
            ],
            [
              -71.0900208,
              42.3375443
            ],
            [
              -71.090024,
              42.3375403
            ],
            [
              -71.0900274,
              42.3375362
            ],
            [
              -71.090031,
              42.3375322
            ],
            [
              -71.0900345,
              42.3375282
            ],
            [
              -71.0900382,
              42.3375244
            ],
            [
              -71.0900418,
              42.3375205
            ],
            [
              -71.0900457,
              42.3375167
            ],
            [
              -71.0900497,
              42.337513
            ],
            [
              -71.0900537,
              42.3375092
            ],
            [
              -71.0900578,
              42.3375056
            ],
            [
              -71.090062,
              42.337502
            ],
            [
              -71.0900662,
              42.3374985
            ],
            [
              -71.0900706,
              42.337495
            ],
            [
              -71.090075,
              42.3374916
            ],
            [
              -71.0900795,
              42.3374882
            ],
            [
              -71.0900842,
              42.3374848
            ],
            [
              -71.0900888,
              42.3374816
            ],
            [
              -71.0900936,
              42.3374784
            ],
            [
              -71.0900984,
              42.3374753
            ],
            [
              -71.0901033,
              42.3374722
            ],
            [
              -71.0901083,
              42.3374693
            ],
            [
              -71.0901133,
              42.3374663
            ],
            [
              -71.0901184,
              42.3374634
            ],
            [
              -71.0901236,
              42.3374606
            ],
            [
              -71.0901289,
              42.3374579
            ],
            [
              -71.0901341,
              42.3374552
            ],
            [
              -71.0901395,
              42.3374526
            ],
            [
              -71.090145,
              42.3374501
            ],
            [
              -71.0901504,
              42.3374476
            ],
            [
              -71.090156,
              42.3374452
            ],
            [
              -71.0901616,
              42.3374429
            ],
            [
              -71.0901672,
              42.3374407
            ],
            [
              -71.0901729,
              42.3374385
            ],
            [
              -71.0901787,
              42.3374365
            ],
            [
              -71.0901845,
              42.3374344
            ],
            [
              -71.0901903,
              42.3374325
            ],
            [
              -71.0901962,
              42.3374306
            ],
            [
              -71.0902021,
              42.3374288
            ],
            [
              -71.0902081,
              42.3374271
            ],
            [
              -71.0902142,
              42.3374254
            ],
            [
              -71.0902202,
              42.3374239
            ],
            [
              -71.0902263,
              42.3374224
            ],
            [
              -71.0902324,
              42.337421
            ],
            [
              -71.0902386,
              42.3374197
            ],
            [
              -71.0902448,
              42.3374184
            ],
            [
              -71.090251,
              42.3374173
            ],
            [
              -71.0902572,
              42.3374162
            ],
            [
              -71.0902635,
              42.3374152
            ],
            [
              -71.0902697,
              42.3374143
            ],
            [
              -71.090276,
              42.3374134
            ],
            [
              -71.0902824,
              42.3374127
            ],
            [
              -71.0902888,
              42.337412
            ],
            [
              -71.0902951,
              42.3374114
            ]
          ]
        ]
      }
    },
    {
      "type": "Feature",
      "id": "SN",
      "properties": {
        "code": "SN",
        "name": "Snell Engineering Center",
        "roomCount": 6,
        "lon": -71.08890501428571,
        "lat": 42.3382328
      },
      "geometry": {
        "type": "Polygon",
        "coordinates": [
          [
            [
              -71.0889847,
              42.3380578
            ],
            [
              -71.0891709,
              42.3382874
            ],
            [
              -71.0891882,
              42.3383101
            ],
            [
              -71.0887047,
              42.3385141
            ],
            [
              -71.0885064,
              42.3382633
            ],
            [
              -71.0887955,
              42.3381391
            ],
            [
              -71.0889847,
              42.3380578
            ]
          ]
        ]
      }
    },
    {
      "type": "Feature",
      "id": "SL",
      "properties": {
        "code": "SL",
        "name": "Snell Library",
        "roomCount": 29,
        "lon": -71.08795732142859,
        "lat": 42.33836460714286
      },
      "geometry": {
        "type": "Polygon",
        "coordinates": [
          [
            [
              -71.088204,
              42.3378873
            ],
            [
              -71.0883215,
              42.3380503
            ],
            [
              -71.088224,
              42.338086
            ],
            [
              -71.0882656,
              42.3381489
            ],
            [
              -71.0882262,
              42.3381644
            ],
            [
              -71.088318,
              42.3382774
            ],
            [
              -71.088362,
              42.3383413
            ],
            [
              -71.0885238,
              42.3385651
            ],
            [
              -71.0884533,
              42.3385945
            ],
            [
              -71.0884735,
              42.3386223
            ],
            [
              -71.0884614,
              42.3386479
            ],
            [
              -71.0884563,
              42.3386505
            ],
            [
              -71.0884227,
              42.3386426
            ],
            [
              -71.0884059,
              42.338617
            ],
            [
              -71.0883715,
              42.3385758
            ],
            [
              -71.0881424,
              42.3386755
            ],
            [
              -71.088112,
              42.3386887
            ],
            [
              -71.0878748,
              42.3387875
            ],
            [
              -71.0878544,
              42.3387939
            ],
            [
              -71.0878392,
              42.338773
            ],
            [
              -71.0876705,
              42.3385412
            ],
            [
              -71.0875028,
              42.3386099
            ],
            [
              -71.0874729,
              42.3385666
            ],
            [
              -71.087417,
              42.3384858
            ],
            [
              -71.0873837,
              42.3384377
            ],
            [
              -71.0874621,
              42.3384081
            ],
            [
              -71.0874441,
              42.3383841
            ],
            [
              -71.087536,
              42.3383495
            ],
            [
              -71.0875219,
              42.3383262
            ],
            [
              -71.0876081,
              42.3382895
            ],
            [
              -71.0875973,
              42.3382677
            ],
            [
              -71.087673,
              42.3382389
            ],
            [
              -71.0876641,
              42.3382145
            ],
            [
              -71.0877414,
              42.3381843
            ],
            [
              -71.0877198,
              42.3381617
            ],
            [
              -71.0878117,
              42.3381257
            ],
            [
              -71.0878024,
              42.3381042
            ],
            [
              -71.0878892,
              42.3380725
            ],
            [
              -71.087873,
              42.3380538
            ],
            [
              -71.0879576,
              42.3380205
            ],
            [
              -71.0879424,
              42.3379939
            ],
            [
              -71.088204,
              42.3378873
            ]
          ]
        ]
      }
    },
    {
      "type": "Feature",
      "id": "ST",
      "properties": {
        "code": "ST",
        "name": "Stearns Center",
        "roomCount": 1,
        "lon": -71.09139432,
        "lat": 42.33902748
      },
      "geometry": {
        "type": "Polygon",
        "coordinates": [
          [
            [
              -71.0915327,
              42.3390824
            ],
            [
              -71.0913436,
              42.3391607
            ],
            [
              -71.0911854,
              42.3389436
            ],
            [
              -71.0913772,
              42.3388683
            ],
            [
              -71.0915327,
              42.3390824
            ]
          ]
        ]
      }
    },
    {
      "type": "Feature",
      "id": "SE",
      "properties": {
        "code": "SE",
        "name": "Stetson East",
        "roomCount": 1,
        "lon": -71.09023907777777,
        "lat": 42.34133507222222
      },
      "geometry": {
        "type": "Polygon",
        "coordinates": [
          [
            [
              -71.0904765,
              42.3415525
            ],
            [
              -71.090667,
              42.3414765
            ],
            [
              -71.0904624,
              42.3411962
            ],
            [
              -71.0903424,
              42.3410319
            ],
            [
              -71.0902555,
              42.3409129
            ],
            [
              -71.0901869,
              42.3409402
            ],
            [
              -71.0900622,
              42.34099
            ],
            [
              -71.0902522,
              42.3412503
            ],
            [
              -71.0902414,
              42.3412546
            ],
            [
              -71.0900131,
              42.3413457
            ],
            [
              -71.0899117,
              42.3412068
            ],
            [
              -71.0897084,
              42.3412879
            ],
            [
              -71.0900668,
              42.3417789
            ],
            [
              -71.0902719,
              42.341697
            ],
            [
              -71.0901783,
              42.3415688
            ],
            [
              -71.0903117,
              42.3415156
            ],
            [
              -71.0904185,
              42.341473
            ],
            [
              -71.0904765,
              42.3415525
            ]
          ]
        ]
      }
    },
    {
      "type": "Feature",
      "id": "WVC",
      "properties": {
        "code": "WVC",
        "name": "West Village C",
        "roomCount": 1,
        "lon": -71.09259450434782,
        "lat": 42.33698270869566
      },
      "geometry": {
        "type": "Polygon",
        "coordinates": [
          [
            [
              -71.0924363,
              42.3367168
            ],
            [
              -71.0929039,
              42.3369008
            ],
            [
              -71.0928054,
              42.337036
            ],
            [
              -71.0927504,
              42.3370139
            ],
            [
              -71.0927443,
              42.3370107
            ],
            [
              -71.0927381,
              42.3370079
            ],
            [
              -71.0927318,
              42.3370054
            ],
            [
              -71.0927253,
              42.337003
            ],
            [
              -71.0927186,
              42.3370009
            ],
            [
              -71.0927118,
              42.3369991
            ],
            [
              -71.0927048,
              42.3369976
            ],
            [
              -71.0926977,
              42.3369964
            ],
            [
              -71.0926907,
              42.3369953
            ],
            [
              -71.0926834,
              42.3369946
            ],
            [
              -71.0926763,
              42.3369942
            ],
            [
              -71.092669,
              42.336994
            ],
            [
              -71.0926618,
              42.3369942
            ],
            [
              -71.0926546,
              42.3369946
            ],
            [
              -71.0926474,
              42.3369952
            ],
            [
              -71.0926402,
              42.3369962
            ],
            [
              -71.0926332,
              42.3369974
            ],
            [
              -71.0926263,
              42.3369989
            ],
            [
              -71.0926195,
              42.3370007
            ],
            [
              -71.0926128,
              42.3370027
            ],
            [
              -71.0926062,
              42.337005
            ],
            [
              -71.0925999,
              42.3370076
            ],
            [
              -71.0925937,
              42.3370104
            ],
            [
              -71.0925877,
              42.3370134
            ],
            [
              -71.0925819,
              42.3370167
            ],
            [
              -71.0925764,
              42.3370201
            ],
            [
              -71.0925711,
              42.3370238
            ],
            [
              -71.0925661,
              42.3370278
            ],
            [
              -71.0925614,
              42.3370318
            ],
            [
              -71.092557,
              42.337036
            ],
            [
              -71.0925528,
              42.3370405
            ],
            [
              -71.092549,
              42.3370451
            ],
            [
              -71.0925456,
              42.3370497
            ],
            [
              -71.0924563,
              42.3371933
            ],
            [
              -71.0922289,
              42.3371695
            ],
            [
              -71.0923672,
              42.3369472
            ],
            [
              -71.0923774,
              42.3369137
            ],
            [
              -71.0923845,
              42.3368815
            ],
            [
              -71.0923886,
              42.3368299
            ],
            [
              -71.0923866,
              42.336796
            ],
            [
              -71.092389,
              42.3367823
            ],
            [
              -71.0924363,
              42.3367168
            ]
          ]
        ]
      }
    },
    {
      "type": "Feature",
      "id": "WVF",
      "properties": {
        "code": "WVF",
        "name": "West Village F",
        "roomCount": 3,
        "lon": -71.09153153055554,
        "lat": 42.33749238055555
      },
      "geometry": {
        "type": "Polygon",
        "coordinates": [
          [
            [
              -71.0914758,
              42.337383
            ],
            [
              -71.0914849,
              42.3372972
            ],
            [
              -71.091569,
              42.3372967
            ],
            [
              -71.0916714,
              42.3372998
            ],
            [
              -71.0917556,
              42.3373056
            ],
            [
              -71.091856,
              42.337315
            ],
            [
              -71.0919518,
              42.3373275
            ],
            [
              -71.0919017,
              42.3374106
            ],
            [
              -71.0918069,
              42.3373998
            ],
            [
              -71.0917343,
              42.3373945
            ],
            [
              -71.0916866,
              42.3374393
            ],
            [
              -71.0917574,
              42.337442
            ],
            [
              -71.0918531,
              42.3374499
            ],
            [
              -71.0918041,
              42.33754
            ],
            [
              -71.0917396,
              42.3375367
            ],
            [
              -71.0917382,
              42.3375511
            ],
            [
              -71.0917501,
              42.3375537
            ],
            [
              -71.0917617,
              42.3375859
            ],
            [
              -71.0916476,
              42.3376077
            ],
            [
              -71.0914974,
              42.3376444
            ],
            [
              -71.0913808,
              42.3376827
            ],
            [
              -71.0912797,
              42.3377208
            ],
            [
              -71.091166,
              42.3377727
            ],
            [
              -71.0911381,
              42.3377885
            ],
            [
              -71.0911153,
              42.3376845
            ],
            [
              -71.091131,
              42.337675
            ],
            [
              -71.0911215,
              42.3376658
            ],
            [
              -71.0911417,
              42.3374653
            ],
            [
              -71.091182,
              42.3374534
            ],
            [
              -71.0911966,
              42.3374783
            ],
            [
              -71.0912927,
              42.3374606
            ],
            [
              -71.0913964,
              42.337449
            ],
            [
              -71.091494,
              42.337443
            ],
            [
              -71.0915838,
              42.3374387
            ],
            [
              -71.0915965,
              42.337384
            ],
            [
              -71.0914758,
              42.337383
            ]
          ]
        ]
      }
    },
    {
      "type": "Feature",
      "id": "WVG",
      "properties": {
        "code": "WVG",
        "name": "West Village G",
        "roomCount": 4,
        "lon": -71.091837525,
        "lat": 42.33831998928572
      },
      "geometry": {
        "type": "Polygon",
        "coordinates": [
          [
            [
              -71.091494,
              42.3386276
            ],
            [
              -71.0916495,
              42.3385662
            ],
            [
              -71.0916844,
              42.338591
            ],
            [
              -71.0918105,
              42.3385077
            ],
            [
              -71.0918346,
              42.3385245
            ],
            [
              -71.0919526,
              42.3384244
            ],
            [
              -71.0919714,
              42.3384373
            ],
            [
              -71.092068,
              42.3383283
            ],
            [
              -71.0920841,
              42.3383352
            ],
            [
              -71.0921498,
              42.3382152
            ],
            [
              -71.0921632,
              42.3382232
            ],
            [
              -71.0922074,
              42.3380923
            ],
            [
              -71.0922209,
              42.3379684
            ],
            [
              -71.0918346,
              42.3378296
            ],
            [
              -71.0917434,
              42.3379773
            ],
            [
              -71.0920036,
              42.3380656
            ],
            [
              -71.0919687,
              42.3381359
            ],
            [
              -71.0919513,
              42.3381647
            ],
            [
              -71.0919218,
              42.3382043
            ],
            [
              -71.0919701,
              42.3382252
            ],
            [
              -71.0919352,
              42.3382688
            ],
            [
              -71.0918909,
              42.338246
            ],
            [
              -71.0917959,
              42.3383302
            ],
            [
              -71.0916948,
              42.33839
            ],
            [
              -71.0913329,
              42.3385262
            ],
            [
              -71.0912714,
              42.3385494
            ],
            [
              -71.0913517,
              42.3385776
            ],
            [
              -71.091494,
              42.3386276
            ]
          ]
        ]
      }
    },
    {
      "type": "Feature",
      "id": "WVH",
      "properties": {
        "code": "WVH",
        "name": "West Village H",
        "roomCount": 5,
        "lon": -71.09226788947369,
        "lat": 42.33859392631579
      },
      "geometry": {
        "type": "Polygon",
        "coordinates": [
          [
            [
              -71.091977,
              42.3386098
            ],
            [
              -71.0920037,
              42.3386498
            ],
            [
              -71.0919625,
              42.3386661
            ],
            [
              -71.0920786,
              42.3388269
            ],
            [
              -71.0920367,
              42.3388439
            ],
            [
              -71.0920646,
              42.3388814
            ],
            [
              -71.0924125,
              42.3387436
            ],
            [
              -71.0923847,
              42.3387069
            ],
            [
              -71.0923585,
              42.3387159
            ],
            [
              -71.0923431,
              42.3386973
            ],
            [
              -71.0924487,
              42.3386542
            ],
            [
              -71.0924545,
              42.3386552
            ],
            [
              -71.092491,
              42.338568
            ],
            [
              -71.0926179,
              42.3382573
            ],
            [
              -71.0924337,
              42.3382143
            ],
            [
              -71.09242,
              42.3382496
            ],
            [
              -71.0923654,
              42.3382357
            ],
            [
              -71.0922598,
              42.3384989
            ],
            [
              -71.091977,
              42.3386098
            ]
          ]
        ]
      }
    }
  ]
}
